ORBCOMM FM103           
1 40091U 14040F   24116.19988713  .00002184  00000+0  52330-3 0  9993
2 40091  47.0038 189.3228 0001885 193.5386 166.5449 14.56518380520191
ORBCOMM FM114           
1 41179U 15081A   24115.95931860  .00003285  00000+0  76797-3 0  9997
2 41179  47.0003  99.7422 0002094 249.8944 110.1715 14.56534745443513
ORBCOMM FM119           
1 41180U 15081B   24116.06627256  .00002523  00000+0  59889-3 0  9990
2 41180  47.0016   8.4277 0001926 288.8488  71.2188 14.56503898444734
ORBCOMM FM105           
1 41181U 15081C   24116.04975484  .00001258  00000+0  40744-3 0  9992
2 41181  47.0023 334.0096 0002317 251.3254 108.7374 14.44344652440390
ORBCOMM FM110           
1 41182U 15081D   24116.34806893  .00002552  00000+0  60505-3 0  9998
2 41182  46.9998  97.3200 0001707  17.1652 342.9291 14.56528086443579
ORBCOMM FM118           
1 41183U 15081E   24116.32531822  .00001862  00000+0  45168-3 0  9995
2 41183  47.0023  97.7298 0001700  15.1717 344.9218 14.56516086443573
ORBCOMM FM112           
1 41184U 15081F   24115.08359923  .00003414  00000+0  79667-3 0  9994
2 41184  46.9994  12.2804 0001517 272.4061  87.6650 14.56526701444533
ORBCOMM FM113           
1 41185U 15081G   24114.58053130  .00003076  00000+0  72164-3 0  9999
2 41185  47.0021  14.9132 0001431 287.3269  72.7459 14.56516680444515
